ONEWEB-0144             
1 47290U 20100AJ  25067.10022436  .00000427  00000+0  11505-2 0  9999
2 47290  87.8799  83.4143 0001784  81.7276 278.4055 13.12444624203430
ONEWEB-0145             
1 47291U 20100AK  25067.07102902 -.00000408  00000+0 -11687-2 0  9995
2 47291  87.8800  83.4453 0001899  87.5531 272.5815 13.12444503203629
ONEWEB-0146             
1 47292U 20100AL  25067.06779520 -.00000340  00000+0 -98104-3 0  9996
2 47292  87.8800  83.4318 0002175 100.6698 259.4676 13.12442978203532
ONEWEB-0147             
1 47293U 20100AM  25067.49116096  .00000482  00000+0  13034-2 0  9990
2 47293  87.8795  83.3310 0002104  84.6027 275.5341 13.12442952203480
ONEWEB-0115             
1 48042U 21025A   25067.04491976 -.00000094  00000+0 -29157-3 0  9999
2 48042  87.8899  52.8715 0001937  87.1313 273.0038 13.13437922192404
ONEWEB-0152             
1 48043U 21025B   25066.98196700 -.00000257  00000+0 -74024-3 0  9993
2 48043  87.8903  52.8926 0001997  87.4331 272.7026 13.13348428192353
ONEWEB-0153             
1 48044U 21025C   25067.03607755  .00000142  00000+0  35470-3 0  9991
2 48044  87.8908  52.8764 0001814  84.5292 275.6044 13.13328200192359
ONEWEB-0154             
1 48045U 21025D   25067.48989027  .00000357  00000+0  94516-3 0  9990
2 48045  87.8903  52.7891 0001948  85.4480 274.6872 13.13352755192385
